[{"OBJECT_NAME":"STARLINK-36766","OBJECT_ID":"2026-042A","EPOCH":"2026-04-02T20:00:01.999008","MEAN_MOTION":15.75235858,"ECCENTRICITY":0.0001315,"INCLINATION":53.1588,"RA_OF_ASC_NODE":73.9476,"ARG_OF_PERICENTER":82.1044,"MEAN_ANOMALY":121.2985,"EPHEMERIS_TYPE":0,"CLASSIFICATION_TYPE":"U","NORAD_CAT_ID":68069,"ELEMENT_SET_NO":999,"REV_AT_EPOCH":592,"BSTAR":-0.00031886,"MEAN_MOTION_DOT":-0.00049226,"MEAN_MOTION_DDOT":0},{"OBJECT_NAME":"STARLINK-36823","OBJECT_ID":"2026-042B","EPOCH":"2026-04-01T06:21:21.324960","MEAN_MOTION":15.80941111,"ECCENTRICITY":0.00010822,"INCLINATION":53.1563,"RA_OF_ASC_NODE":81.6298,"ARG_OF_PERICENTER":38.4869,"MEAN_ANOMALY":321.623,"EPHEMERIS_TYPE":0,"CLASSIFICATION_TYPE":"U","NORAD_CAT_ID":68070,"ELEMENT_SET_NO":999,"REV_AT_EPOCH":565,"BSTAR":0.0012281634,"MEAN_MOTION_DOT":0.00249621,"MEAN_MOTION_DDOT":0},{"OBJECT_NAME":"STARLINK-36970","OBJECT_ID":"2026-042C","EPOCH":"2026-04-02T08:48:59.937696","MEAN_MOTION":15.75324372,"ECCENTRICITY":0.00015146,"INCLINATION":53.1586,"RA_OF_ASC_NODE":76.4275,"ARG_OF_PERICENTER":95.4363,"MEAN_ANOMALY":264.683,"EPHEMERIS_TYPE":0,"CLASSIFICATION_TYPE":"U","NORAD_CAT_ID":68071,"ELEMENT_SET_NO":999,"REV_AT_EPOCH":582,"BSTAR":0.0018267177,"MEAN_MOTION_DOT":0.00290276,"MEAN_MOTION_DDOT":0},{"OBJECT_NAME":"STARLINK-36972","OBJECT_ID":"2026-042D","EPOCH":"2026-04-02T20:00:01.999008","MEAN_MOTION":15.75277051,"ECCENTRICITY":0.000106,"INCLINATION":53.1596,"RA_OF_ASC_NODE":73.8455,"ARG_OF_PERICENTER":117.47,"MEAN_ANOMALY":135.5649,"EPHEMERIS_TYPE":0,"CLASSIFICATION_TYPE":"U","NORAD_CAT_ID":68072,"ELEMENT_SET_NO":999,"REV_AT_EPOCH":593,"BSTAR":-0.00078362,"MEAN_MOTION_DOT":-0.00119276,"MEAN_MOTION_DDOT":0},{"OBJECT_NAME":"STARLINK-37074","OBJECT_ID":"2026-042E","EPOCH":"2026-04-02T16:12:16.040160","MEAN_MOTION":15.75341639,"ECCENTRICITY":0.0002257,"INCLINATION":53.1575,"RA_OF_ASC_NODE":74.7867,"ARG_OF_PERICENTER":81.7872,"MEAN_ANOMALY":278.3404,"EPHEMERIS_TYPE":0,"CLASSIFICATION_TYPE":"U","NORAD_CAT_ID":68073,"ELEMENT_SET_NO":999,"REV_AT_EPOCH":587,"BSTAR":0.00194,"MEAN_MOTION_DOT":0.00309261,"MEAN_MOTION_DDOT":0},{"OBJECT_NAME":"STARLINK-37045","OBJECT_ID":"2026-042F","EPOCH":"2026-04-02T20:00:01.999008","MEAN_MOTION":15.7529042,"ECCENTRICITY":0.0001221,"INCLINATION":53.1587,"RA_OF_ASC_NODE":74.2691,"ARG_OF_PERICENTER":62.3008,"MEAN_ANOMALY":344.7105,"EPHEMERIS_TYPE":0,"CLASSIFICATION_TYPE":"U","NORAD_CAT_ID":68074,"ELEMENT_SET_NO":999,"REV_AT_EPOCH":593,"BSTAR":-0.00098423,"MEAN_MOTION_DOT":-0.00149216,"MEAN_MOTION_DDOT":0},{"OBJECT_NAME":"STARLINK-37026","OBJECT_ID":"2026-042G","EPOCH":"2026-04-02T01:45:19.453248","MEAN_MOTION":15.7535383,"ECCENTRICITY":8.767e-5,"INCLINATION":53.1555,"RA_OF_ASC_NODE":78.1547,"ARG_OF_PERICENTER":272.3686,"MEAN_ANOMALY":87.7234,"EPHEMERIS_TYPE":0,"CLASSIFICATION_TYPE":"U","NORAD_CAT_ID":68075,"ELEMENT_SET_NO":999,"REV_AT_EPOCH":577,"BSTAR":0.0019642374,"MEAN_MOTION_DOT":0.00313456,"MEAN_MOTION_DDOT":0},{"OBJECT_NAME":"STARLINK-37023","OBJECT_ID":"2026-042H","EPOCH":"2026-04-02T06:11:56.745024","MEAN_MOTION":15.75321298,"ECCENTRICITY":0.00012429,"INCLINATION":53.1561,"RA_OF_ASC_NODE":77.1754,"ARG_OF_PERICENTER":84.6204,"MEAN_ANOMALY":275.4958,"EPHEMERIS_TYPE":0,"CLASSIFICATION_TYPE":"U","NORAD_CAT_ID":68076,"ELEMENT_SET_NO":999,"REV_AT_EPOCH":580,"BSTAR":0.001611307,"MEAN_MOTION_DOT":0.00254855,"MEAN_MOTION_DDOT":0},{"OBJECT_NAME":"STARLINK-37036","OBJECT_ID":"2026-042J","EPOCH":"2026-04-02T06:12:25.238016","MEAN_MOTION":15.7531934,"ECCENTRICITY":0.00024098,"INCLINATION":53.1567,"RA_OF_ASC_NODE":77.1774,"ARG_OF_PERICENTER":22.0914,"MEAN_ANOMALY":338.021,"EPHEMERIS_TYPE":0,"CLASSIFICATION_TYPE":"U","NORAD_CAT_ID":68077,"ELEMENT_SET_NO":999,"REV_AT_EPOCH":580,"BSTAR":0.0024984001,"MEAN_MOTION_DOT":0.00402534,"MEAN_MOTION_DDOT":0},{"OBJECT_NAME":"STARLINK-36973","OBJECT_ID":"2026-042K","EPOCH":"2026-04-02T16:12:43.949952","MEAN_MOTION":15.75375895,"ECCENTRICITY":9.46e-5,"INCLINATION":53.1582,"RA_OF_ASC_NODE":74.7884,"ARG_OF_PERICENTER":36.3725,"MEAN_ANOMALY":323.736,"EPHEMERIS_TYPE":0,"CLASSIFICATION_TYPE":"U","NORAD_CAT_ID":68078,"ELEMENT_SET_NO":999,"REV_AT_EPOCH":587,"BSTAR":0.0022302,"MEAN_MOTION_DOT":0.00358252,"MEAN_MOTION_DDOT":0},{"OBJECT_NAME":"STARLINK-37063","OBJECT_ID":"2026-042L","EPOCH":"2026-04-02T15:35:29.378112","MEAN_MOTION":15.81020327,"ECCENTRICITY":0.00014328,"INCLINATION":53.1563,"RA_OF_ASC_NODE":74.618,"ARG_OF_PERICENTER":81.9447,"MEAN_ANOMALY":278.1738,"EPHEMERIS_TYPE":0,"CLASSIFICATION_TYPE":"U","NORAD_CAT_ID":68079,"ELEMENT_SET_NO":999,"REV_AT_EPOCH":587,"BSTAR":0.0017762843,"MEAN_MOTION_DOT":0.00367714,"MEAN_MOTION_DDOT":0},{"OBJECT_NAME":"STARLINK-37051","OBJECT_ID":"2026-042M","EPOCH":"2026-04-02T02:37:01.041312","MEAN_MOTION":15.75342009,"ECCENTRICITY":9.998e-5,"INCLINATION":53.1582,"RA_OF_ASC_NODE":77.6571,"ARG_OF_PERICENTER":115.8791,"MEAN_ANOMALY":244.2333,"EPHEMERIS_TYPE":0,"CLASSIFICATION_TYPE":"U","NORAD_CAT_ID":68080,"ELEMENT_SET_NO":999,"REV_AT_EPOCH":578,"BSTAR":0.0018101954,"MEAN_MOTION_DOT":0.00287784,"MEAN_MOTION_DDOT":0},{"OBJECT_NAME":"STARLINK-37066","OBJECT_ID":"2026-042N","EPOCH":"2026-04-02T20:00:01.999008","MEAN_MOTION":15.75283033,"ECCENTRICITY":9.94e-5,"INCLINATION":53.1592,"RA_OF_ASC_NODE":74.212,"ARG_OF_PERICENTER":58.4441,"MEAN_ANOMALY":16.1822,"EPHEMERIS_TYPE":0,"CLASSIFICATION_TYPE":"U","NORAD_CAT_ID":68081,"ELEMENT_SET_NO":999,"REV_AT_EPOCH":593,"BSTAR":-0.00086919,"MEAN_MOTION_DOT":-0.00132068,"MEAN_MOTION_DDOT":0},{"OBJECT_NAME":"STARLINK-37054","OBJECT_ID":"2026-042P","EPOCH":"2026-04-02T20:00:01.999008","MEAN_MOTION":15.75309488,"ECCENTRICITY":0.0001077,"INCLINATION":53.1586,"RA_OF_ASC_NODE":73.6832,"ARG_OF_PERICENTER":94.1769,"MEAN_ANOMALY":237.8942,"EPHEMERIS_TYPE":0,"CLASSIFICATION_TYPE":"U","NORAD_CAT_ID":68082,"ELEMENT_SET_NO":999,"REV_AT_EPOCH":593,"BSTAR":-0.0010839,"MEAN_MOTION_DOT":-0.00164104,"MEAN_MOTION_DDOT":0},{"OBJECT_NAME":"STARLINK-37065","OBJECT_ID":"2026-042Q","EPOCH":"2026-04-02T13:42:12.605472","MEAN_MOTION":15.75256997,"ECCENTRICITY":0.00011892,"INCLINATION":53.1591,"RA_OF_ASC_NODE":75.5684,"ARG_OF_PERICENTER":91.2277,"MEAN_ANOMALY":268.888,"EPHEMERIS_TYPE":0,"CLASSIFICATION_TYPE":"U","NORAD_CAT_ID":68083,"ELEMENT_SET_NO":999,"REV_AT_EPOCH":585,"BSTAR":0.00096097765,"MEAN_MOTION_DOT":0.00149413,"MEAN_MOTION_DDOT":0},{"OBJECT_NAME":"STARLINK-37037","OBJECT_ID":"2026-042R","EPOCH":"2026-04-02T16:18:47.672352","MEAN_MOTION":15.75271564,"ECCENTRICITY":0.0001367,"INCLINATION":53.1584,"RA_OF_ASC_NODE":74.8177,"ARG_OF_PERICENTER":105.5139,"MEAN_ANOMALY":254.6032,"EPHEMERIS_TYPE":0,"CLASSIFICATION_TYPE":"U","NORAD_CAT_ID":68084,"ELEMENT_SET_NO":999,"REV_AT_EPOCH":587,"BSTAR":0.0023548,"MEAN_MOTION_DOT":0.00377442,"MEAN_MOTION_DDOT":0}]
