STARLINK-36766          
1 68069U 26042A   26092.83335647 -.00049226  00000+0 -31886-3 0  9994
2 68069  53.1588  73.9476 0001315  82.1044 121.2985 15.75235858  5929
STARLINK-36823          
1 68070U 26042B   26091.26483015  .00249621  00000+0  12282-2 0  9992
2 68070  53.1563  81.6298 0001082  38.4869 321.6230 15.80941111  5653
STARLINK-36970          
1 68071U 26042C   26092.36736039  .00290276  00000+0  18267-2 0  9993
2 68071  53.1586  76.4275 0001514  95.4363 264.6830 15.75324372  5827
STARLINK-36972          
1 68072U 26042D   26092.83335647 -.00119276  00000+0 -78362-3 0  9991
2 68072  53.1596  73.8455 0001060 117.4700 135.5649 15.75277051  5933
STARLINK-37074          
1 68073U 26042E   26092.67518565  .00309261  00000+0  19400-2 0  9996
2 68073  53.1575  74.7867 0002257  81.7872 278.3404 15.75341639  5872
STARLINK-37045          
1 68074U 26042F   26092.83335647 -.00149216  00000+0 -98423-3 0  9990
2 68074  53.1587  74.2691 0001221  62.3008 344.7105 15.75290420  5936
STARLINK-37026          
1 68075U 26042G   26092.07314182  .00313456  00000+0  19642-2 0  9990
2 68075  53.1555  78.1547 0000876 272.3686  87.7234 15.75353830  5779
STARLINK-37023          
1 68076U 26042H   26092.25829566  .00254855  00000+0  16113-2 0  9995
2 68076  53.1561  77.1754 0001242  84.6204 275.4958 15.75321298  5800
STARLINK-37036          
1 68077U 26042J   26092.25862544  .00402534  00000+0  24984-2 0  9993
2 68077  53.1567  77.1774 0002409  22.0914 338.0210 15.75319340  5801
STARLINK-36973          
1 68078U 26042K   26092.67550868  .00358252  00000+0  22302-2 0  9992
2 68078  53.1582  74.7884 0000946  36.3725 323.7360 15.75375895  5877
STARLINK-37063          
1 68079U 26042L   26092.64964558  .00367714  00000+0  17763-2 0  9993
2 68079  53.1563  74.6180 0001432  81.9447 278.1738 15.81020327  5879
STARLINK-37051          
1 68080U 26042M   26092.10903983  .00287784  00000+0  18102-2 0  9997
2 68080  53.1582  77.6571 0000999 115.8791 244.2333 15.75342009  5787
STARLINK-37066          
1 68081U 26042N   26092.83335647 -.00132068  00000+0 -86919-3 0  9992
2 68081  53.1592  74.2120 0000994  58.4441  16.1822 15.75283033  5938
STARLINK-37054          
1 68082U 26042P   26092.83335647 -.00164104  00000+0 -10839-2 0  9996
2 68082  53.1586  73.6832 0001077  94.1769 237.8942 15.75309488  5936
STARLINK-37065          
1 68083U 26042Q   26092.57097923  .00149413  00000+0  96098-3 0  9996
2 68083  53.1591  75.5684 0001189  91.2277 268.8880 15.75256997  5857
STARLINK-37037          
1 68084U 26042R   26092.67971843  .00377442  00000+0  23548-2 0  9994
2 68084  53.1584  74.8177 0001367 105.5139 254.6032 15.75271564  5874
